{"type": "FeatureCollection", "features": [ {"type": "Feature", "properties": {"norad_id": 60453, "name": "LEGION 4", "group": "resource", "lat": 41.15746391760862, "lon": 178.463401619122, "alt_km": 519.0930240945436, "timestamp": "2025-12-09T11:33:54.458351+00:00", "meta": {"OBJECT_NAME": "LEGION 4", "OBJECT_ID": "2024-146B", "EPOCH": "2025-12-09T04:44:54.532896", "MEAN_MOTION": 15.15765657, "ECCENTRICITY": 0.0009798, "INCLINATION": 45.0386, "RA_OF_ASC_NODE": 60.8599, "ARG_OF_PERICENTER": 292.6249, "MEAN_ANOMALY": 67.3594, "EPHEMERIS_TYPE": 0, "CLASSIFICATION_TYPE": "U", "NORAD_CAT_ID": 60453, "ELEMENT_SET_NO": 999, "REV_AT_EPOCH": 7204, "BSTAR": 0.00034922, "MEAN_MOTION_DOT": 6.524e-05, "MEAN_MOTION_DDOT": 0}, "tle": {"line1": "1 60453U 24146B   25343.19785339  .00006524  00000+0  34922-3 0  9996", "line2": "2 60453  45.0386  60.8599 0009798 292.6249  67.3594 15.15765657 72045"}}, "geometry": {"type": "Point", "coordinates": [178.463401619122, 41.15746391760862]}}, {"type": "Feature", "properties": {"norad_id": 60989, "name": "SENTINEL-2C", "group": "resource", "lat": 27.463125733375403, "lon": -119.49418614016112, "alt_km": 787.349965253683, "timestamp": "2025-12-09T11:33:54.458364+00:00", "meta": {"OBJECT_NAME": "SENTINEL-2C", "OBJECT_ID": "2024-157A", "EPOCH": "2025-12-09T04:08:36.250656", "MEAN_MOTION": 14.30815346, "ECCENTRICITY": 0.0001188, "INCLINATION": 98.5685, "RA_OF_ASC_NODE": 55.7066, "ARG_OF_PERICENTER": 97.9261, "MEAN_ANOMALY": 262.2056, "EPHEMERIS_TYPE": 0, "CLASSIFICATION_TYPE": "U", "NORAD_CAT_ID": 60989, "ELEMENT_SET_NO": 999, "REV_AT_EPOCH": 6581, "BSTAR": 0.00011762, "MEAN_MOTION_DOT": 2.65e-06, "MEAN_MOTION_DDOT": 0}, "tle": {"line1": "1 60989U 24157A   25343.17264179  .00000265  00000+0  11762-3 0  9997", "line2": "2 60989  98.5685  55.7066 0001188  97.9261 262.2056 14.30815346 65814"}}, "geometry": {"type": "Point", "coordinates": [-119.49418614016112, 27.463125733375403]}}, {"type": "Feature", "properties": {"norad_id": 61735, "name": "IONOSFERA-M 1", "group": "resource", "lat": 26.2314109515286, "lon": 37.70282691396331, "alt_km": 815.7016642051394, "timestamp": "2025-12-09T11:33:54.458375+00:00", "meta": {"OBJECT_NAME": "IONOSFERA-M 1", "OBJECT_ID": "2024-199A", "EPOCH": "2025-12-09T04:05:43.276992", "MEAN_MOTION": 14.22712752, "ECCENTRICITY": 0.000113, "INCLINATION": 98.7413, "RA_OF_ASC_NODE": 213.0462, "ARG_OF_PERICENTER": 26.7054, "MEAN_ANOMALY": 333.4182, "EPHEMERIS_TYPE": 0, "CLASSIFICATION_TYPE": "U", "NORAD_CAT_ID": 61735, "ELEMENT_SET_NO": 999, "REV_AT_EPOCH": 10068, "BSTAR": 7.2543e-05, "MEAN_MOTION_DOT": 1.18e-06, "MEAN_MOTION_DDOT": 0}, "tle": {"line1": "1 61735U 24199A   25343.17063978  .00000118  00000+0  72543-4 0  9999", "line2": "2 61735  98.7413 213.0462 0001130  26.7054 333.4182 14.22712752100685"}}, "geometry": {"type": "Point", "coordinates": [37.70282691396331, 26.2314109515286]}}, {"type": "Feature", "properties": {"norad_id": 61736, "name": "IONOSFERA-M 2", "group": "resource", "lat": -23.86264427477381, "lon": -142.83038181452073, "alt_km": 822.4655929517603, "timestamp": "2025-12-09T11:33:54.458385+00:00", "meta": {"OBJECT_NAME": "IONOSFERA-M 2", "OBJECT_ID": "2024-199B", "EPOCH": "2025-12-09T04:55:37.137216", "MEAN_MOTION": 14.22714921, "ECCENTRICITY": 0.0001568, "INCLINATION": 98.7404, "RA_OF_ASC_NODE": 212.9931, "ARG_OF_PERICENTER": 114.5608, "MEAN_ANOMALY": 245.5734, "EPHEMERIS_TYPE": 0, "CLASSIFICATION_TYPE": "U", "NORAD_CAT_ID": 61736, "ELEMENT_SET_NO": 999, "REV_AT_EPOCH": 10381, "BSTAR": 7.1994e-05, "MEAN_MOTION_DOT": 1.17e-06, "MEAN_MOTION_DDOT": 0}, "tle": {"line1": "1 61736U 24199B   25343.20529094  .00000117  00000+0  71994-4 0  9998", "line2": "2 61736  98.7404 212.9931 0001568 114.5608 245.5734 14.22714921103815"}}, "geometry": {"type": "Point", "coordinates": [-142.83038181452073, -23.86264427477381]}}, {"type": "Feature", "properties": {"norad_id": 63772, "name": "BIOMASS", "group": "resource", "lat": 3.281947663605653, "lon": 168.0730243010394, "alt_km": 671.2843314190768, "timestamp": "2025-12-09T11:33:54.458395+00:00", "meta": {"OBJECT_NAME": "BIOMASS", "OBJECT_ID": "2025-090A", "EPOCH": "2025-12-09T01:43:54.454656", "MEAN_MOTION": 14.6753205, "ECCENTRICITY": 0.0001203, "INCLINATION": 98.0699, "RA_OF_ASC_NODE": 168.1356, "ARG_OF_PERICENTER": 79.0989, "MEAN_ANOMALY": 281.035, "EPHEMERIS_TYPE": 0, "CLASSIFICATION_TYPE": "U", "NORAD_CAT_ID": 63772, "ELEMENT_SET_NO": 999, "REV_AT_EPOCH": 3280, "BSTAR": 0.00037862, "MEAN_MOTION_DOT": 2.099e-05, "MEAN_MOTION_DDOT": 0}, "tle": {"line1": "1 63772U 25090A   25343.07215804  .00002099  00000+0  37862-3 0  9993", "line2": "2 63772  98.0699 168.1356 0001203  79.0989 281.0350 14.67532050 32801"}}, "geometry": {"type": "Point", "coordinates": [168.0730243010394, 3.281947663605653]}}, {"type": "Feature", "properties": {"norad_id": 64694, "name": "GOSAT-GW (IBUKI GW)", "group": "resource", "lat": -32.449087634354626, "lon": 93.89615560387114, "alt_km": 675.6691054340963, "timestamp": "2025-12-09T11:33:54.458405+00:00", "meta": {"OBJECT_NAME": "GOSAT-GW (IBUKI GW)", "OBJECT_ID": "2025-141A", "EPOCH": "2025-12-08T18:14:08.043648", "MEAN_MOTION": 14.67565462, "ECCENTRICITY": 0.00014946, "INCLINATION": 98.0423, "RA_OF_ASC_NODE": 278.345, "ARG_OF_PERICENTER": 82.5316, "MEAN_ANOMALY": 277.6059, "EPHEMERIS_TYPE": 0, "CLASSIFICATION_TYPE": "U", "NORAD_CAT_ID": 64694, "ELEMENT_SET_NO": 999, "REV_AT_EPOCH": 2391, "BSTAR": 0.00038232231, "MEAN_MOTION_DOT": 2.122e-05, "MEAN_MOTION_DDOT": 0}, "tle": {"line1": "1 64694U 25141A   25342.75981532  .00002122  00000+0  38232-3 0  9995", "line2": "2 64694  98.0423 278.3450 0001494  82.5316 277.6059 14.67565462 23916"}}, "geometry": {"type": "Point", "coordinates": [93.89615560387114, -32.449087634354626]}}, {"type": "Feature", "properties": {"norad_id": 64876, "name": "IONOSFERA-M 3", "group": "resource", "lat": 34.646803431131154, "lon": -60.54688557211974, "alt_km": 816.7162196729896, "timestamp": "2025-12-09T11:33:54.458415+00:00", "meta": {"OBJECT_NAME": "IONOSFERA-M 3", "OBJECT_ID": "2025-155A", "EPOCH": "2025-12-09T04:38:35.027808", "MEAN_MOTION": 14.21439527, "ECCENTRICITY": 0.0002319, "INCLINATION": 98.5777, "RA_OF_ASC_NODE": 305.16, "ARG_OF_PERICENTER": 65.5766, "MEAN_ANOMALY": 294.5653, "EPHEMERIS_TYPE": 0, "CLASSIFICATION_TYPE": "U", "NORAD_CAT_ID": 64876, "ELEMENT_SET_NO": 999, "REV_AT_EPOCH": 1941, "BSTAR": 8.4106e-05, "MEAN_MOTION_DOT": 1.41e-06, "MEAN_MOTION_DDOT": 0}, "tle": {"line1": "1 64876U 25155A   25343.19346097  .00000141  00000+0  84106-4 0  9993", "line2": "2 64876  98.5777 305.1600 0002319  65.5766 294.5653 14.21439527 19418"}}, "geometry": {"type": "Point", "coordinates": [-60.54688557211974, 34.646803431131154]}}, {"type": "Feature", "properties": {"norad_id": 64877, "name": "IONOSFERA-M 4", "group": "resource", "lat": -35.4899915163107, "lon": 119.18173623921324, "alt_km": 827.7603771853173, "timestamp": "2025-12-09T11:33:54.458425+00:00", "meta": {"OBJECT_NAME": "IONOSFERA-M 4", "OBJECT_ID": "2025-155B", "EPOCH": "2025-12-09T03:47:43.181088", "MEAN_MOTION": 14.21440592, "ECCENTRICITY": 0.0001673, "INCLINATION": 98.5776, "RA_OF_ASC_NODE": 305.0453, "ARG_OF_PERICENTER": 67.0906, "MEAN_ANOMALY": 293.0448, "EPHEMERIS_TYPE": 0, "CLASSIFICATION_TYPE": "U", "NORAD_CAT_ID": 64877, "ELEMENT_SET_NO": 999, "REV_AT_EPOCH": 1940, "BSTAR": 8.3635e-05, "MEAN_MOTION_DOT": 1.4e-06, "MEAN_MOTION_DDOT": 0}, "tle": {"line1": "1 64877U 25155B   25343.15813867  .00000140  00000+0  83635-4 0  9999", "line2": "2 64877  98.5776 305.0453 0001673  67.0906 293.0448 14.21440592 19407"}}, "geometry": {"type": "Point", "coordinates": [119.18173623921324, -35.4899915163107]}}, {"type": "Feature", "properties": {"norad_id": 64899, "name": "MICROCARB", "group": "resource", "lat": 41.68227376495964, "lon": -113.92432754617622, "alt_km": 639.8066977917169, "timestamp": "2025-12-09T11:33:54.458435+00:00", "meta": {"OBJECT_NAME": "MICROCARB", "OBJECT_ID": "2025-156A", "EPOCH": "2025-12-09T04:24:58.267872", "MEAN_MOTION": 14.72047394, "ECCENTRICITY": 0.0016915, "INCLINATION": 98.0028, "RA_OF_ASC_NODE": 58.5864, "ARG_OF_PERICENTER": 155.6667, "MEAN_ANOMALY": 204.5342, "EPHEMERIS_TYPE": 0, "CLASSIFICATION_TYPE": "U", "NORAD_CAT_ID": 64899, "ELEMENT_SET_NO": 999, "REV_AT_EPOCH": 2001, "BSTAR": 0.00018901, "MEAN_MOTION_DOT": 1.14e-05, "MEAN_MOTION_DDOT": 0}, "tle": {"line1": "1 64899U 25156A   25343.18400773  .00001140  00000+0  18901-3 0  9999", "line2": "2 64899  98.0028  58.5864 0016915 155.6667 204.5342 14.72047394 20013"}}, "geometry": {"type": "Point", "coordinates": [-113.92432754617622, 41.68227376495964]}}, {"type": "Feature", "properties": {"norad_id": 64900, "name": "CO3D 3", "group": "resource", "lat": -24.319319401246176, "lon": 63.27866266452508, "alt_km": 511.40563354618007, "timestamp": "2025-12-09T11:33:54.458445+00:00", "meta": {"OBJECT_NAME": "CO3D 3", "OBJECT_ID": "2025-156B", "EPOCH": "2025-12-08T18:17:44.446272", "MEAN_MOTION": 15.2019842, "ECCENTRICITY": 0.0001356, "INCLINATION": 97.4341, "RA_OF_ASC_NODE": 59.1865, "ARG_OF_PERICENTER": 106.1908, "MEAN_ANOMALY": 253.9476, "EPHEMERIS_TYPE": 0, "CLASSIFICATION_TYPE": "U", "NORAD_CAT_ID": 64900, "ELEMENT_SET_NO": 999, "REV_AT_EPOCH": 2060, "BSTAR": 0.0004581347, "MEAN_MOTION_DOT": 9.862e-05, "MEAN_MOTION_DDOT": 0}, "tle": {"line1": "1 64900U 25156B   25342.76231998  .00009862  00000+0  45813-3 0  9997", "line2": "2 64900  97.4341  59.1865 0001356 106.1908 253.9476 15.20198420 20609"}}, "geometry": {"type": "Point", "coordinates": [63.27866266452508, -24.319319401246176]}}]}